OBJECT_NAME,OBJECT_ID,EPOCH,MEAN_MOTION,ECCENTRICITY,INCLINATION,RA_OF_ASC_NODE,ARG_OF_PERICENTER,MEAN_ANOMALY,EPHEMERIS_TYPE,CLASSIFICATION_TYPE,NORAD_CAT_ID,ELEMENT_SET_NO,REV_AT_EPOCH,BSTAR,MEAN_MOTION_DOT,MEAN_MOTION_DDOT
STARLINK-2732,2021-044J,2026-05-19T06:43:42.618432,15.31704464,.00014134,53.1593,145.5916,92.6069,267.5094,0,U,48646,999,27464,-.24463098E-4,-.1124E-4,0
STARLINK-2521,2021-044L,2026-05-19T06:50:26.630880,15.31699406,.0001276,53.1606,145.6876,82.9046,277.2100,0,U,48648,999,27464,.22869808E-4,.345E-5,0
STARLINK-2673,2021-044M,2026-05-19T06:23:34.050048,15.31692620,.00012666,53.1588,145.5902,94.0471,266.0675,0,U,48649,999,27463,.25217044E-4,.417E-5,0
STARLINK-2672,2021-044N,2026-05-19T06:36:59.802624,15.31704617,.00015036,53.1600,145.6775,105.3084,254.8084,0,U,48650,999,27463,.56582721E-4,.1391E-4,0
STARLINK-2731,2021-044P,2026-05-19T06:30:17.987328,15.31690541,.00012066,53.1596,145.6945,100.3984,259.7153,0,U,48651,999,27463,.1911419E-5,-.306E-5,0
STARLINK-2727,2021-044Q,2026-05-19T08:00:01.999872,15.69587149,.00013499,53.0487,133.5296,78.9481,167.4413,0,U,48652,999,583,.86460419E-3,.104965E-2,0
STARLINK-2720,2021-044R,2026-05-19T06:10:09.278112,15.31693856,.00011933,53.1593,145.6850,92.1745,267.9393,0,U,48653,999,27463,.43124831E-4,.973E-5,0
STARLINK-2657,2021-044T,2026-05-19T06:16:53.112576,15.31687464,.0001679,53.1611,145.7799,98.8450,261.2742,0,U,48655,999,27463,-.19047411E-4,-.956E-5,0
STARLINK-2701,2021-044U,2026-05-19T07:23:58.186176,15.31700424,.000118,53.1593,145.4114,88.1372,271.9765,0,U,48656,999,27464,.44593409E-4,.1019E-4,0
STARLINK-2734,2021-044V,2026-05-19T06:03:27.525024,15.31698479,.00012492,53.1596,145.7927,83.4438,276.6706,0,U,48657,999,27463,.5648708E-5,-.19E-5,0
STARLINK-2647,2021-044W,2026-05-19T06:33:41.647680,15.30184420,.00013357,53.1588,145.9860,94.3078,265.8076,0,U,48658,999,27463,.1631025E-4,.124E-5,0
STARLINK-2717,2021-044X,2026-05-19T07:10:33.138624,15.31702207,.00013123,53.1603,145.4745,86.1600,273.9551,0,U,48659,999,27464,.19659233E-4,.245E-5,0
STARLINK-2726,2021-044AA,2026-05-19T06:50:48.552288,15.29356196,.00015454,53.1573,145.9602,79.1480,280.9694,0,U,48662,999,27462,.65287244E-4,.1528E-4,0
STARLINK-2667,2021-044AB,2026-05-19T07:00:57.062304,15.31696951,.00013191,53.1605,135.5499,94.8116,265.3036,0,U,48663,999,27478,.31317033E-4,.607E-5,0
STARLINK-2666,2021-044AE,2026-05-19T06:16:41.356128,15.29351800,.00013997,53.1588,146.1255,89.5308,270.5853,0,U,48666,999,27461,.17629568E-4,.153E-5,0
STARLINK-2735,2021-044AF,2026-05-19T06:32:10.376448,15.30192356,.00013051,53.1618,145.9977,108.4670,251.6473,0,U,48667,999,27462,.26213127E-4,.417E-5,0
STARLINK-2738,2021-044AG,2026-05-19T06:54:14.892768,15.31699535,.00011274,53.1594,135.6203,78.2809,281.8319,0,U,48668,999,27478,.36874623E-4,.779E-5,0
STARLINK-2707,2021-044AH,2026-05-19T05:33:44.486496,15.31702779,.00014951,53.1589,136.0118,89.7865,270.3308,0,U,48669,999,27476,-.28429794E-4,-.1247E-4,0
STARLINK-2763,2021-044AJ,2026-05-19T07:21:08.801568,15.31693956,.00011982,53.1584,135.7873,98.1633,261.9505,0,U,48670,999,27477,.16083836E-4,.134E-5,0
STARLINK-2745,2021-044AK,2026-05-19T06:19:43.530528,15.29348253,.00011841,53.1592,146.1191,76.0422,284.0710,0,U,48671,999,27461,-.39946189E-4,-.1508E-4,0
STARLINK-2705,2021-044AL,2026-05-19T07:27:52.674912,15.31695353,.0001204,53.1595,135.8823,95.0923,265.0216,0,U,48672,999,27477,.23267872E-4,.357E-5,0
STARLINK-2711,2021-044AM,2026-05-19T07:40:52.290624,15.29352049,.00013004,53.1570,145.8196,95.4541,264.6608,0,U,48673,999,27462,.20428237E-4,.234E-5,0
STARLINK-2712,2021-044AN,2026-05-19T06:03:01.566144,15.29351761,.00011898,53.1607,146.1529,81.3282,278.7853,0,U,48674,999,27461,.31898986E-4,.565E-5,0
STARLINK-2746,2021-044AQ,2026-05-19T07:28:02.673120,15.29337935,.00011507,53.1607,145.8812,77.8787,282.2343,0,U,48676,999,27462,.12012416E-3,.311E-4,0
STARLINK-2615,2021-044AS,2026-05-19T07:14:21.647616,15.31691395,.00012549,53.1602,135.4026,93.5448,266.5697,0,U,48678,999,27478,.9624135E-5,-.67E-6,0
STARLINK-2648,2021-044AT,2026-05-19T07:05:33.400608,15.30194281,.00013756,53.1612,145.9063,83.2156,276.9001,0,U,48679,999,27462,.86514298E-4,.2203E-4,0
STARLINK-2725,2021-044AV,2026-05-19T04:29:43.056960,15.31701650,.00010476,53.1615,107.7558,88.2177,271.8945,0,U,48681,999,27515,.51805358E-4,.1243E-4,0
STARLINK-2743,2021-044AW,2026-05-19T06:19:49.674432,15.31704930,.00013801,53.1602,96.7891,101.0393,259.0764,0,U,48682,999,27531,-.72930061E-4,-.2628E-4,0
STARLINK-2756,2021-044AX,2026-05-19T02:58:32.678112,15.31693506,.00014649,53.1595,97.6343,98.3908,261.7259,0,U,48683,999,27529,.22912503E-3,.675E-4,0
STARLINK-2741,2021-044AY,2026-05-19T05:03:42.922944,15.31699443,.00011255,53.1571,109.9432,82.8106,277.3023,0,U,48684,999,27513,.16062258E-4,.133E-5,0
