STARLINK-2732           
1 48646U 21044J   26139.28035438 -.00001124  00000+0 -24463-4 0  9995
2 48646  53.1593 145.5916 0001413  92.6069 267.5094 15.31704464274649
STARLINK-2521           
1 48648U 21044L   26139.28503045  .00000345  00000+0  22870-4 0  9993
2 48648  53.1606 145.6876 0001276  82.9046 277.2100 15.31699406274641
STARLINK-2673           
1 48649U 21044M   26139.26636632  .00000417  00000+0  25217-4 0  9999
2 48649  53.1588 145.5902 0001266  94.0471 266.0675 15.31692620274638
STARLINK-2672           
1 48650U 21044N   26139.27569216  .00001391  00000+0  56583-4 0  9997
2 48650  53.1600 145.6775 0001503 105.3084 254.8084 15.31704617274633
STARLINK-2731           
1 48651U 21044P   26139.27104152 -.00000306  00000+0  19114-5 0  9998
2 48651  53.1596 145.6945 0001206 100.3984 259.7153 15.31690541274632
STARLINK-2727           
1 48652U 21044Q   26139.33335648  .00104965  00000+0  86460-3 0  9993
2 48652  53.0487 133.5296 0001349  78.9481 167.4413 15.69587149  5834
STARLINK-2720           
1 48653U 21044R   26139.25705183  .00000973  00000+0  43125-4 0  9996
2 48653  53.1593 145.6850 0001193  92.1745 267.9393 15.31693856274633
STARLINK-2657           
1 48655U 21044T   26139.26172584 -.00000956  00000+0 -19047-4 0  9991
2 48655  53.1611 145.7799 0001679  98.8450 261.2742 15.31687464274637
STARLINK-2701           
1 48656U 21044U   26139.30831234  .00001019  00000+0  44593-4 0  9994
2 48656  53.1593 145.4114 0001180  88.1372 271.9765 15.31700424274643
STARLINK-2734           
1 48657U 21044V   26139.25240191 -.00000190  00000+0  56487-5 0  9991
2 48657  53.1596 145.7927 0001249  83.4438 276.6706 15.31698479274631
STARLINK-2647           
1 48658U 21044W   26139.27339870  .00000124  00000+0  16310-4 0  9993
2 48658  53.1588 145.9860 0001335  94.3078 265.8076 15.30184420274633
STARLINK-2717           
1 48659U 21044X   26139.29899466  .00000245  00000+0  19659-4 0  9991
2 48659  53.1603 145.4745 0001312  86.1600 273.9551 15.31702207274643
STARLINK-2726           
1 48662U 21044AA  26139.28528417  .00001528  00000+0  65287-4 0  9992
2 48662  53.1573 145.9602 0001545  79.1480 280.9694 15.29356196274629
STARLINK-2667           
1 48663U 21044AB  26139.29232711  .00000607  00000+0  31317-4 0  9997
2 48663  53.1605 135.5499 0001319  94.8116 265.3036 15.31696951274787
STARLINK-2666           
1 48666U 21044AE  26139.26158977  .00000153  00000+0  17630-4 0  9996
2 48666  53.1588 146.1255 0001399  89.5308 270.5853 15.29351800274615
STARLINK-2735           
1 48667U 21044AF  26139.27234232  .00000417  00000+0  26213-4 0  9997
2 48667  53.1618 145.9977 0001305 108.4670 251.6473 15.30192356274628
STARLINK-2738           
1 48668U 21044AG  26139.28767237  .00000779  00000+0  36875-4 0  9991
2 48668  53.1594 135.6203 0001127  78.2809 281.8319 15.31699535274783
STARLINK-2707           
1 48669U 21044AH  26139.23176489 -.00001247  00000+0 -28430-4 0  9991
2 48669  53.1589 136.0118 0001495  89.7865 270.3308 15.31702779274769
STARLINK-2763           
1 48670U 21044AJ  26139.30635187  .00000134  00000+0  16084-4 0  9990
2 48670  53.1584 135.7873 0001198  98.1633 261.9505 15.31693956274779
STARLINK-2745           
1 48671U 21044AK  26139.26369827 -.00001508  00000+0 -39946-4 0  9991
2 48671  53.1592 146.1191 0001184  76.0422 284.0710 15.29348253274615
STARLINK-2705           
1 48672U 21044AL  26139.31102633  .00000357  00000+0  23268-4 0  9997
2 48672  53.1595 135.8823 0001204  95.0923 265.0216 15.31695353274772
STARLINK-2711           
1 48673U 21044AM  26139.32004966  .00000234  00000+0  20428-4 0  9998
2 48673  53.1570 145.8196 0001300  95.4541 264.6608 15.29352049274620
STARLINK-2712           
1 48674U 21044AN  26139.25210146  .00000565  00000+0  31899-4 0  9991
2 48674  53.1607 146.1529 0001189  81.3282 278.7853 15.29351761274614
STARLINK-2746           
1 48676U 21044AQ  26139.31114205  .00003110  00000+0  12012-3 0  9993
2 48676  53.1607 145.8812 0001150  77.8787 282.2343 15.29337935274627
STARLINK-2615           
1 48678U 21044AS  26139.30163944 -.00000067  00000+0  96241-5 0  9995
2 48678  53.1602 135.4026 0001254  93.5448 266.5697 15.31691395274780
STARLINK-2648           
1 48679U 21044AT  26139.29552547  .00002203  00000+0  86514-4 0  9999
2 48679  53.1612 145.9063 0001375  83.2156 276.9001 15.30194281274623
STARLINK-2725           
1 48681U 21044AV  26139.18730390  .00001243  00000+0  51805-4 0  9992
2 48681  53.1615 107.7558 0001047  88.2177 271.8945 15.31701650275153
STARLINK-2743           
1 48682U 21044AW  26139.26376938 -.00002628  00000+0 -72930-4 0  9998
2 48682  53.1602  96.7891 0001380 101.0393 259.0764 15.31704930275310
STARLINK-2756           
1 48683U 21044AX  26139.12398933  .00006750  00000+0  22913-3 0  9996
2 48683  53.1595  97.6343 0001464  98.3908 261.7259 15.31693506275299
STARLINK-2741           
1 48684U 21044AY  26139.21091346  .00000133  00000+0  16062-4 0  9993
2 48684  53.1571 109.9432 0001125  82.8106 277.3023 15.31699443275133
